#aV2015  8 29  0  0  0.00000000     288 DD+AD WGS84 FIT  NGA
## 1859 518400.00000000   300.00000000 57263 0.0000000000000
+   31     1  2  3  4  5  6  7  8  9 11 12 13 14 15 16 17 18
+         19 20 21 22 23 24 25 26 27 28 29 30 31 32  0  0  0
+          0  0  0  0  0  0  0  0  0  0  0  0  0  0  0  0  0
+          0  0  0  0  0  0  0  0  0  0  0  0  0  0  0  0  0
+          0  0  0  0  0  0  0  0  0  0  0  0  0  0  0  0  0
++         2  2  2  2  2  2  2  2  2  2  2  2  2  2  2  2  2
++         2  2  2  2  2  2  2  2  2  2  2  2  2  2  0  0  0
++         0  0  0  0  0  0  0  0  0  0  0  0  0  0  0  0  0
++         0  0  0  0  0  0  0  0  0  0  0  0  0  0  0  0  0
++         0  0  0  0  0  0  0  0  0  0  0  0  0  0  0  0  0
%c cc cc ccc ccc cccc cccc cccc cccc ccccc ccccc ccccc ccccc
%c cc cc ccc ccc cccc cccc cccc cccc ccccc ccccc ccccc ccccc
%f  0.0000000  0.000000000  0.00000000000  0.000000000000000
%f  0.0000000  0.000000000  0.00000000000  0.000000000000000
%i    0    0    0    0      0      0      0      0         0
%i    0    0    0    0      0      0      0      0         0
/*      NGA, ST. LOUIS,MO.                                  
/*   EPHEMERIS COMPUTED FROM  1 DAYS OF DATA                
/*   EPOCHA SMOOTHER                                       
/* CCCCCCCCCCCCCCCCCCCCCCCCCCCCCCCCCCCCCCCCCCCCCCCCCCCCCCCCC
*  2015  8 29  5 55  0.00000000
P  1 -17909.237911  -5333.526406  18885.780945     -0.460986                    
V  1 -10444.413625 -21694.659576 -15778.694018      0.006412                    
P  2  14297.995164  22637.860084   -804.078725    586.393076                    
V  2  -1862.377062   2824.219786  31021.736098      0.018322                    
P  3 -18350.969505   5587.023860  18392.872919     19.053901                    
V  3  10662.407222 -20801.912717  16940.673475      0.019007                    
P  4 -18657.315586 -14287.587911  12282.594794    -14.903022                    
V  4  -5717.238132 -15280.236764 -25481.678372     -0.038057                    
P  5   8186.622364  15000.185908 -20340.630427   -201.375113                    
V  5 -14058.304298  21671.252734  10540.769847      0.041300                    
P  6   5887.797992  24087.857422   9528.736063     47.340680                    
V  6  -8065.186392  -9350.397717  28598.858376      0.075841                    
P  7 -11387.931240  10158.634179 -21581.473344    482.332795                    
V  7 -13367.895154 -24272.746917  -4727.615323      0.018954                    
P  8 -25070.760610  -5174.853493  -7003.728775     -3.377494                    
V  8   8984.639151  -2623.830792 -30053.503579     -0.012691                    
P  9 -21888.688726   8538.077362 -12410.134805    -10.893801                    
V  9 -15728.931130  -2576.462796  25959.898523      0.004933                    
P 11 -22481.609218  -6601.813825  12050.254775   -600.826940                    
V 11  -9702.767332 -13698.566965 -24402.366728     -0.023273                    
P 12  17185.642861  -2210.064152  19957.044730    323.162289                    
V 12 -13359.491757  21820.156847  14050.264268      0.034242                    
P 13  17868.668457  12640.423757 -15098.116585   -144.832758                    
V 13 -19032.569786   -603.257168 -23343.489473     -0.030382                    
P 14   6667.218975 -14366.691154  21551.699002     38.488234                    
V 14  26620.000723   3019.439879  -6448.699102     -0.026271                    
P 15  25499.158470   4222.203239  -6915.640025   -268.644656                    
V 15  -8495.868092   3542.423676 -29239.029408     -0.020773                    
P 16  -6277.342351 -15062.120253 -20949.254404    -92.339352                    
V 16  15675.237799 -21294.357026  11010.572797      0.040648                    
P 17  -5127.125546  14602.626405  21860.811460   -185.842248                    
V 17 -26961.509305  -2066.432914  -5218.816890     -0.013006                    
P 18  15504.905636 -20827.503706  -4299.246333    429.462433                    
V 18    595.713307   7407.827924 -30480.111132      0.032210                    
P 19 -25871.659985  -5766.581859  -4259.332082   -519.155980                    
V 19   5252.293421  -1506.777571 -31067.202270     -0.007038                    
P 20  17711.864545  -2097.766731 -19853.222929    350.852874                    
V 20  -9944.625481  22969.078705 -11301.980026      0.030984                    
P 21   9131.720647 -13733.181861 -20051.799118   -475.640241                    
V 21  14834.859848  22875.891006  -8944.554515     -0.029004                    
P 22   7310.478466 -24383.450349   7494.647199    386.031771                    
V 22   7937.573845  -6199.412533 -29006.605389      0.036261                    
P 23 -26798.456169   -380.451386   -133.371817   -130.009742                    
V 23   -313.147870  -2874.608670  31165.190338     -0.022617                    
P 24  18698.633448   7838.128537  17202.596095     -3.780663                    
V 24   9437.636906  19814.205627 -19096.704455     -0.006243                    
P 25  18259.251922 -14985.748956  11876.278084    -31.535568                    
V 25  -6078.304375  14156.925527  27134.946444     -0.049677                    
P 26   1333.412520 -22196.022448 -14527.343589    -38.297433                    
V 26  11203.830647 -14797.426785  23650.454790     -0.095513                    
P 27 -16343.382918 -12037.595118 -17220.548835     15.493362                    
V 27  21765.245215  -1278.263461 -19675.346560      0.029069                    
P 28 -11903.843790  23206.567027   5388.130566    463.806112                    
V 28  -4971.789071   3896.508148 -31471.971199      0.024996                    
P 29  23602.886857  -5668.626293 -10721.295510    630.880438                    
V 29  13447.525518   3065.756686  27986.582161      0.023370                    
P 30  -3885.164917  20046.466327 -16944.710805     14.787736                    
V 30 -10836.007346 -18734.794075 -19762.898750      0.068959                    
P 31  -5488.051907 -24193.681277   9127.654613    304.775611                    
V 31   7403.665471   9116.119361  29353.350492     -0.013526                    
P 32 -12793.323024  -8737.976446  21526.855609    -59.081209                    
V 32  15712.204657 -22557.491681    716.624908      0.108203                    
EOF
